{"type": "FeatureCollection", "features": [{"type": "Feature", "properties": {"norad_id": 36828, "name": "BEIDOU-2 IGSO-1 (C06)", "group": "beidou", "lat": 34.387137574966566, "lon": -44.97428986347489, "alt_km": 35743.355399082706, "timestamp": "2025-12-19T06:59:44.173380+00:00", "meta": {"OBJECT_NAME": "BEIDOU-2 IGSO-1 (C06)", "OBJECT_ID": "2010-036A", "EPOCH": "2025-12-14T21:38:21.623424", "MEAN_MOTION": 1.00275796, "ECCENTRICITY": 0.00512569, "INCLINATION": 54.2866, "RA_OF_ASC_NODE": 164.6279, "ARG_OF_PERICENTER": 215.8888, "MEAN_ANOMALY": 135.7931, "EPHEMERIS_TYPE": 0, "CLASSIFICATION_TYPE": "U", "NORAD_CAT_ID": 36828, "ELEMENT_SET_NO": 999, "REV_AT_EPOCH": 5624, "BSTAR": 0, "MEAN_MOTION_DOT": -2.4e-07, "MEAN_MOTION_DDOT": 0}, "tle": {"line1": "1 36828U 10036A   25348.90163916 -.00000024  00000+0  00000+0 0  9999", "line2": "2 36828  54.2866 164.6279 0051256 215.8888 135.7931  1.00275796 56247"}}, "geometry": {"type": "Point", "coordinates": [-44.97428986347489, 34.387137574966566]}}, {"type": "Feature", "properties": {"norad_id": 37210, "name": "BEIDOU-2 G4 (C04)", "group": "beidou", "lat": -3.1152238700021666, "lon": -6.70766718196775, "alt_km": 35787.02594280298, "timestamp": "2025-12-19T06:59:44.173404+00:00", "meta": {"OBJECT_NAME": "BEIDOU-2 G4 (C04)", "OBJECT_ID": "2010-057A", "EPOCH": "2025-12-18T19:11:33.420768", "MEAN_MOTION": 1.00272049, "ECCENTRICITY": 0.00104469, "INCLINATION": 3.1991, "RA_OF_ASC_NODE": 69.9164, "ARG_OF_PERICENTER": 192.4779, "MEAN_ANOMALY": 273.2335, "EPHEMERIS_TYPE": 0, "CLASSIFICATION_TYPE": "U", "NORAD_CAT_ID": 37210, "ELEMENT_SET_NO": 999, "REV_AT_EPOCH": 5548, "BSTAR": 0, "MEAN_MOTION_DOT": -8.9e-07, "MEAN_MOTION_DDOT": 0}, "tle": {"line1": "1 37210U 10057A   25352.79969237 -.00000089  00000+0  00000+0 0  9991", "line2": "2 37210   3.1991  69.9164 0010446 192.4779 273.2335  1.00272049 55489"}}, "geometry": {"type": "Point", "coordinates": [-6.70766718196775, -3.1152238700021666]}}, {"type": "Feature", "properties": {"norad_id": 37256, "name": "BEIDOU-2 IGSO-2 (C07)", "group": "beidou", "lat": 19.647081189913056, "lon": -67.14663772722898, "alt_km": 35981.51626100741, "timestamp": "2025-12-19T06:59:44.173434+00:00", "meta": {"OBJECT_NAME": "BEIDOU-2 IGSO-2 (C07)", "OBJECT_ID": "2010-068A", "EPOCH": "2025-12-18T17:13:56.551296", "MEAN_MOTION": 1.00284788, "ECCENTRICITY": 0.00483763, "INCLINATION": 47.875, "RA_OF_ASC_NODE": 274.0752, "ARG_OF_PERICENTER": 216.347, "MEAN_ANOMALY": 323.4971, "EPHEMERIS_TYPE": 0, "CLASSIFICATION_TYPE": "U", "NORAD_CAT_ID": 37256, "ELEMENT_SET_NO": 999, "REV_AT_EPOCH": 5498, "BSTAR": 0, "MEAN_MOTION_DOT": -2e-06, "MEAN_MOTION_DDOT": 0}, "tle": {"line1": "1 37256U 10068A   25352.71801564 -.00000200  00000+0  00000+0 0  9998", "line2": "2 37256  47.8750 274.0752 0048376 216.3470 323.4971  1.00284788 54987"}}, "geometry": {"type": "Point", "coordinates": [-67.14663772722898, 19.647081189913056]}}, {"type": "Feature", "properties": {"norad_id": 37384, "name": "BEIDOU-2 IGSO-3 (C08)", "group": "beidou", "lat": -60.20591902198204, "lon": -70.85071804041513, "alt_km": 35744.08798299175, "timestamp": "2025-12-19T06:59:44.173449+00:00", "meta": {"OBJECT_NAME": "BEIDOU-2 IGSO-3 (C08)", "OBJECT_ID": "2011-013A", "EPOCH": "2025-12-18T16:17:49.029216", "MEAN_MOTION": 1.00269421, "ECCENTRICITY": 0.00353461, "INCLINATION": 62.1512, "RA_OF_ASC_NODE": 41.8596, "ARG_OF_PERICENTER": 187.8899, "MEAN_ANOMALY": 209.6604, "EPHEMERIS_TYPE": 0, "CLASSIFICATION_TYPE": "U", "NORAD_CAT_ID": 37384, "ELEMENT_SET_NO": 999, "REV_AT_EPOCH": 5385, "BSTAR": 0, "MEAN_MOTION_DOT": -1.73e-06, "MEAN_MOTION_DDOT": 0}, "tle": {"line1": "1 37384U 11013A   25352.67903969 -.00000173  00000+0  00000+0 0  9997", "line2": "2 37384  62.1512  41.8596 0035346 187.8899 209.6604  1.00269421 53851"}}, "geometry": {"type": "Point", "coordinates": [-70.85071804041513, -60.20591902198204]}}, {"type": "Feature", "properties": {"norad_id": 37763, "name": "BEIDOU-2 IGSO-4 (C09)", "group": "beidou", "lat": 45.52416611304278, "lon": -59.272013259120044, "alt_km": 36001.18740442652, "timestamp": "2025-12-19T06:59:44.173462+00:00", "meta": {"OBJECT_NAME": "BEIDOU-2 IGSO-4 (C09)", "OBJECT_ID": "2011-038A", "EPOCH": "2025-12-17T23:29:21.564384", "MEAN_MOTION": 1.00281312, "ECCENTRICITY": 0.01493143, "INCLINATION": 54.5836, "RA_OF_ASC_NODE": 167.2999, "ARG_OF_PERICENTER": 230.2426, "MEAN_ANOMALY": 136.1954, "EPHEMERIS_TYPE": 0, "CLASSIFICATION_TYPE": "U", "NORAD_CAT_ID": 37763, "ELEMENT_SET_NO": 999, "REV_AT_EPOCH": 5283, "BSTAR": 0, "MEAN_MOTION_DOT": 6.5e-07, "MEAN_MOTION_DDOT": 0}, "tle": {"line1": "1 37763U 11038A   25351.97872181  .00000065  00000+0  00000+0 0  9997", "line2": "2 37763  54.5836 167.2999 0149314 230.2426 136.1954  1.00281312 52838"}}, "geometry": {"type": "Point", "coordinates": [-59.272013259120044, 45.52416611304278]}}, {"type": "Feature", "properties": {"norad_id": 37948, "name": "BEIDOU-2 IGSO-5 (C10)", "group": "beidou", "lat": 9.800082277218804, "lon": -77.3111496855579, "alt_km": 36183.79809634247, "timestamp": "2025-12-19T06:59:44.173475+00:00", "meta": {"OBJECT_NAME": "BEIDOU-2 IGSO-5 (C10)", "OBJECT_ID": "2011-073A", "EPOCH": "2025-12-18T16:23:51.533376", "MEAN_MOTION": 1.00290152, "ECCENTRICITY": 0.01099443, "INCLINATION": 48.0091, "RA_OF_ASC_NODE": 273.7856, "ARG_OF_PERICENTER": 222.3449, "MEAN_ANOMALY": 290.7013, "EPHEMERIS_TYPE": 0, "CLASSIFICATION_TYPE": "U", "NORAD_CAT_ID": 37948, "ELEMENT_SET_NO": 999, "REV_AT_EPOCH": 5132, "BSTAR": 0, "MEAN_MOTION_DOT": -1.7e-06, "MEAN_MOTION_DDOT": 0}, "tle": {"line1": "1 37948U 11073A   25352.68323534 -.00000170  00000+0  00000+0 0  9991", "line2": "2 37948  48.0091 273.7856 0109944 222.3449 290.7013  1.00290152 51329"}}, "geometry": {"type": "Point", "coordinates": [-77.3111496855579, 9.800082277218804]}}, {"type": "Feature", "properties": {"norad_id": 38091, "name": "BEIDOU-2 G5 (C05)", "group": "beidou", "lat": -0.08332750932688036, "lon": -108.26001472749896, "alt_km": 35751.69440478085, "timestamp": "2025-12-19T06:59:44.173487+00:00", "meta": {"OBJECT_NAME": "BEIDOU-2 G5 (C05)", "OBJECT_ID": "2012-008A", "EPOCH": "2025-12-18T20:25:21.161568", "MEAN_MOTION": 1.00268356, "ECCENTRICITY": 0.00129713, "INCLINATION": 3.1239, "RA_OF_ASC_NODE": 70.6894, "ARG_OF_PERICENTER": 231.2316, "MEAN_ANOMALY": 150.9156, "EPHEMERIS_TYPE": 0, "CLASSIFICATION_TYPE": "U", "NORAD_CAT_ID": 38091, "ELEMENT_SET_NO": 999, "REV_AT_EPOCH": 5056, "BSTAR": 0, "MEAN_MOTION_DOT": 7.9e-07, "MEAN_MOTION_DDOT": 0}, "tle": {"line1": "1 38091U 12008A   25352.85093937  .00000079  00000+0  00000+0 0  9997", "line2": "2 38091   3.1239  70.6894 0012971 231.2316 150.9156  1.00268356 50567"}}, "geometry": {"type": "Point", "coordinates": [-108.26001472749896, -0.08332750932688036]}}, {"type": "Feature", "properties": {"norad_id": 38250, "name": "BEIDOU-2 M3 (C11)", "group": "beidou", "lat": -8.983086875770802, "lon": -55.22675788174207, "alt_km": 21511.066378913118, "timestamp": "2025-12-19T06:59:44.173498+00:00", "meta": {"OBJECT_NAME": "BEIDOU-2 M3 (C11)", "OBJECT_ID": "2012-018A", "EPOCH": "2025-12-18T05:36:36.842400", "MEAN_MOTION": 1.86230021, "ECCENTRICITY": 0.00242148, "INCLINATION": 55.9152, "RA_OF_ASC_NODE": 310.9725, "ARG_OF_PERICENTER": 274.7921, "MEAN_ANOMALY": 84.917, "EPHEMERIS_TYPE": 0, "CLASSIFICATION_TYPE": "U", "NORAD_CAT_ID": 38250, "ELEMENT_SET_NO": 999, "REV_AT_EPOCH": 9257, "BSTAR": 0, "MEAN_MOTION_DOT": -8.6e-07, "MEAN_MOTION_DDOT": 0}, "tle": {"line1": "1 38250U 12018A   25352.23375975 -.00000086  00000+0  00000+0 0  9991", "line2": "2 38250  55.9152 310.9725 0024214 274.7921  84.9170  1.86230021 92574"}}, "geometry": {"type": "Point", "coordinates": [-55.22675788174207, -8.983086875770802]}}, {"type": "Feature", "properties": {"norad_id": 38251, "name": "BEIDOU-2 M4 (C12)", "group": "beidou", "lat": 28.080768027640293, "lon": -28.617079953283596, "alt_km": 21543.789667478573, "timestamp": "2025-12-19T06:59:44.173509+00:00", "meta": {"OBJECT_NAME": "BEIDOU-2 M4 (C12)", "OBJECT_ID": "2012-018B", "EPOCH": "2025-12-18T03:58:46.817760", "MEAN_MOTION": 1.86229697, "ECCENTRICITY": 0.00154218, "INCLINATION": 55.8167, "RA_OF_ASC_NODE": 310.2031, "ARG_OF_PERICENTER": 278.3297, "MEAN_ANOMALY": 81.4813, "EPHEMERIS_TYPE": 0, "CLASSIFICATION_TYPE": "U", "NORAD_CAT_ID": 38251, "ELEMENT_SET_NO": 999, "REV_AT_EPOCH": 9257, "BSTAR": 0, "MEAN_MOTION_DOT": -8.6e-07, "MEAN_MOTION_DDOT": 0}, "tle": {"line1": "1 38251U 12018B   25352.16581965 -.00000086  00000+0  00000+0 0  9992", "line2": "2 38251  55.8167 310.2031 0015421 278.3297  81.4813  1.86229697 92572"}}, "geometry": {"type": "Point", "coordinates": [-28.617079953283596, 28.080768027640293]}}, {"type": "Feature", "properties": {"norad_id": 38775, "name": "BEIDOU-2 M6 (C14)", "group": "beidou", "lat": -38.54249812849049, "lon": -79.1879712510524, "alt_km": 21546.161175690435, "timestamp": "2025-12-19T06:59:44.173521+00:00", "meta": {"OBJECT_NAME": "BEIDOU-2 M6 (C14)", "OBJECT_ID": "2012-050B", "EPOCH": "2025-12-18T09:55:40.044288", "MEAN_MOTION": 1.8623091, "ECCENTRICITY": 0.00113703, "INCLINATION": 56.3831, "RA_OF_ASC_NODE": 68.8791, "ARG_OF_PERICENTER": 343.3858, "MEAN_ANOMALY": 16.6071, "EPHEMERIS_TYPE": 0, "CLASSIFICATION_TYPE": "U", "NORAD_CAT_ID": 38775, "ELEMENT_SET_NO": 999, "REV_AT_EPOCH": 8994, "BSTAR": 0, "MEAN_MOTION_DOT": -6.3e-07, "MEAN_MOTION_DDOT": 0}, "tle": {"line1": "1 38775U 12050B   25352.41365792 -.00000063  00000+0  00000+0 0  9990", "line2": "2 38775  56.3831  68.8791 0011370 343.3858  16.6071  1.86230910 89944"}}, "geometry": {"type": "Point", "coordinates": [-79.1879712510524, -38.54249812849049]}}]}